{
    "links": {
        "self": "http://www.neowsapp.com/rest/v1/neo/3545478?api_key=iIulBulltgU6a56xZRHN4H3l9WmuAYTsLGpBGhQ2"
    },
    "id": "3545478",
    "neo_reference_id": "3545478",
    "name": "(2010 RT3)",
    "designation": "2010 RT3",
    "nasa_jpl_url": "http://ssd.jpl.nasa.gov/sbdb.cgi?sstr=3545478",
    "absolute_magnitude_h": 23.5,
    "estimated_diameter": {
        "kilometers": {
            "estimated_diameter_min": 0.0530340723,
            "estimated_diameter_max": 0.1185877909
        },
        "meters": {
            "estimated_diameter_min": 53.0340723319,
            "estimated_diameter_max": 118.5877908577
        },
        "miles": {
            "estimated_diameter_min": 0.0329538346,
            "estimated_diameter_max": 0.0736870142
        },
        "feet": {
            "estimated_diameter_min": 173.9963058693,
            "estimated_diameter_max": 389.0675677576
        }
    },
    "is_potentially_hazardous_asteroid": false,
    "close_approach_data": [
        {
            "close_approach_date": "2010-08-20",
            "close_approach_date_full": "2010-Aug-20 06:35",
            "epoch_date_close_approach": 1282286100000,
            "relative_velocity": {
                "kilometers_per_second": "9.963731516",
                "kilometers_per_hour": "35869.4334574953",
                "miles_per_hour": "22287.8710280753"
            },
            "miss_distance": {
                "astronomical": "0.0772616396",
                "lunar": "30.0547778044",
                "kilometers": "11558176.716867652",
                "miles": "7181917.9818995176"
            },
            "orbiting_body": "Earth"
        },
        {
            "close_approach_date": "2130-05-31",
            "close_approach_date_full": "2130-May-31 08:17",
            "epoch_date_close_approach": 5062119420000,
            "relative_velocity": {
                "kilometers_per_second": "19.4122341636",
                "kilometers_per_hour": "69884.0429888545",
                "miles_per_hour": "43423.2266004913"
            },
            "miss_distance": {
                "astronomical": "0.4537079013",
                "lunar": "176.4923736057",
                "kilometers": "67873735.636650231",
                "miles": "42174783.6539099478"
            },
            "orbiting_body": "Earth"
        },
        {
            "close_approach_date": "2133-09-17",
            "close_approach_date_full": "2133-Sep-17 08:14",
            "epoch_date_close_approach": 5166231240000,
            "relative_velocity": {
                "kilometers_per_second": "19.9390603324",
                "kilometers_per_hour": "71780.617196492",
                "miles_per_hour": "44601.6840574536"
            },
            "miss_distance": {
                "astronomical": "0.4175704167",
                "lunar": "162.4348920963",
                "kilometers": "62467644.913332429",
                "miles": "38815594.6461043602"
            },
            "orbiting_body": "Earth"
        }
    ],
    "orbital_data": {
        "orbit_id": "14",
        "orbit_determination_date": "2017-04-06 08:56:55",
        "first_observation_date": "2010-09-02",
        "last_observation_date": "2010-09-29",
        "data_arc_in_days": 27,
        "observations_used": 45,
        "orbit_uncertainty": "7",
        "minimum_orbit_intersection": ".062703",
        "jupiter_tisserand_invariant": "3.507",
        "epoch_osculation": "2459000.5",
        "eccentricity": ".5180488715433559",
        "semi_major_axis": "2.150994357416666",
        "inclination": "8.367312575539453",
        "ascending_node_longitude": "336.1673294189134",
        "orbital_period": "1152.278168256276",
        "perihelion_distance": "1.036674157860836",
        "perihelion_argument": "323.4514144015717",
        "aphelion_distance": "3.265314556972497",
        "perihelion_time": "2458862.940141030075",
        "mean_anomaly": "42.97707844635556",
        "mean_motion": ".3124245602472728",
        "equinox": "J2000",
        "orbit_class": {
            "orbit_class_type": "AMO",
            "orbit_class_description": "Near-Earth asteroid orbits similar to that of 1221 Amor",
            "orbit_class_range": "1.017 AU < q (perihelion) < 1.3 AU"
        }
    },
    "is_sentry_object": false
}